[{"OBJECT_NAME":"ONEWEB-0607","OBJECT_ID":"2022-166AF","EPOCH":"2026-03-09T23:08:11.377248","MEAN_MOTION":13.21825855,"ECCENTRICITY":0.00014688,"INCLINATION":87.917,"RA_OF_ASC_NODE":263.7506,"ARG_OF_PERICENTER":92.8694,"MEAN_ANOMALY":267.2608,"EPHEMERIS_TYPE":0,"CLASSIFICATION_TYPE":"U","NORAD_CAT_ID":54671,"ELEMENT_SET_NO":999,"REV_AT_EPOCH":15843,"BSTAR":0.00014238088,"MEAN_MOTION_DOT":7.2e-7,"MEAN_MOTION_DDOT":0},{"OBJECT_NAME":"SL-14 DEB","OBJECT_ID":"1991-056BH","EPOCH":"2026-03-06T06:58:20.374176","MEAN_MOTION":13.39289459,"ECCENTRICITY":0.00884722,"INCLINATION":82.5817,"RA_OF_ASC_NODE":164.9984,"ARG_OF_PERICENTER":131.5414,"MEAN_ANOMALY":229.3353,"EPHEMERIS_TYPE":0,"CLASSIFICATION_TYPE":"U","NORAD_CAT_ID":45319,"ELEMENT_SET_NO":999,"REV_AT_EPOCH":29347,"BSTAR":0.003041541,"MEAN_MOTION_DOT":1.688e-5,"MEAN_MOTION_DDOT":0}]
